[
    {
        "Altitude(m)": 604969.0892315401,
        "Argument of Periapsis(deg)": 0.0,
        "Eccentricity": 0.0,
        "Inclination(deg)": 60.0,
        "Latitude(deg)": -0.0927401549318566,
        "Longitude(deg)": -65.02247232362666,
        "Mean Anomaly(deg)": 0.0,
        "RAAN(deg)": 35.0,
        "Satellite Name": "Test1 154",
        "Satellite Number": 154,
        "Semi-Major Axis(m)": 6980739.136638005,
        "Time(s)": 0
    },
    {
        "Altitude(m)": 604900.0281742034,
        "Argument of Periapsis(deg)": 0.00010418945913296404,
        "Eccentricity": 0.0,
        "Inclination(deg)": 60.0,
        "Latitude(deg)": 0.4476859504716366,
        "Longitude(deg)": -64.75434971383025,
        "Mean Anomaly(deg)": 0.6201061454618275,
        "RAAN(deg)": 34.99957995086025,
        "Satellite Name": "Test1 154",
        "Satellite Number": 154,
        "Semi-Major Axis(m)": 6980739.136638005,
        "Time(s)": 10
    },
    {
        "Altitude(m)": 604834.1951878075,
        "Argument of Periapsis(deg)": 0.0002083789182659281,
        "Eccentricity": 0.0,
        "Inclination(deg)": 60.0,
        "Latitude(deg)": 0.988108831903662,
        "Longitude(deg)": -64.48617569994676,
        "Mean Anomaly(deg)": 1.2402122909236615,
        "RAAN(deg)": 34.99915990172051,
        "Satellite Name": "Test1 154",
        "Satellite Number": 154,
        "Semi-Major Axis(m)": 6980739.136638005,
        "Time(s)": 20
    },
    {
        "Altitude(m)": 604771.5966516135,
        "Argument of Periapsis(deg)": 0.00031256837739889213,
        "Eccentricity": 0.0,
        "Inclination(deg)": 60.0,
        "Latitude(deg)": 1.5285114033782947,
        "Longitude(deg)": -64.21789589265028,
        "Mean Anomaly(deg)": 1.860318436385489,
        "RAAN(deg)": 34.99873985258077,
        "Satellite Name": "Test1 154",
        "Satellite Number": 154,
        "Semi-Major Axis(m)": 6980739.136638005,
        "Time(s)": 30
    },
    {
        "Altitude(m)": 604712.2374149835,
        "Argument of Periapsis(deg)": 0.0004167578365318562,
        "Eccentricity": 0.0,
        "Inclination(deg)": 60.0,
        "Latitude(deg)": 2.0688765574495083,
        "Longitude(deg)": -63.94945533407831,
        "Mean Anomaly(deg)": 2.480424581847323,
        "RAAN(deg)": 34.998319803441035,
        "Satellite Name": "Test1 154",
        "Satellite Number": 154,
        "Semi-Major Axis(m)": 6980739.136638005,
        "Time(s)": 40
    },
    {
        "Altitude(m)": 604656.120797827,
        "Argument of Periapsis(deg)": 0.0005209472956648203,
        "Eccentricity": 0.0,
        "Inclination(deg)": 60.0,
        "Latitude(deg)": 2.6091871552993857,
        "Longitude(deg)": -63.68079947439683,
        "Mean Anomaly(deg)": 3.1005307273091502,
        "RAAN(deg)": 34.99789975430128,
        "Satellite Name": "Test1 154",
        "Satellite Number": 154,
        "Semi-Major Axis(m)": 6980739.136638005,
        "Time(s)": 50
    },
    {
        "Altitude(m)": 604603.2485917971,
        "Argument of Periapsis(deg)": 0.0006251367547977843,
        "Eccentricity": 0.0,
        "Inclination(deg)": 60.0,
        "Latitude(deg)": 3.149426016787545,
        "Longitude(deg)": -63.411873635403104,
        "Mean Anomaly(deg)": 3.7206368727709846,
        "RAAN(deg)": 34.99747970516154,
        "Satellite Name": "Test1 154",
        "Satellite Number": 154,
        "Semi-Major Axis(m)": 6980739.136638005,
        "Time(s)": 60
    },
    {
        "Altitude(m)": 604553.6210622456,
        "Argument of Periapsis(deg)": 0.0007293262139307483,
        "Eccentricity": 0.0,
        "Inclination(deg)": 60.0,
        "Latitude(deg)": 3.689575910447256,
        "Longitude(deg)": -63.14262247401044,
        "Mean Anomaly(deg)": 4.340743018232812,
        "RAAN(deg)": 34.9970596560218,
        "Satellite Name": "Test1 154",
        "Satellite Number": 154,
        "Semi-Major Axis(m)": 6980739.136638005,
        "Time(s)": 70
    },
    {
        "Altitude(m)": 604507.2369509238,
        "Argument of Periapsis(deg)": 0.0008335156730637124,
        "Eccentricity": 0.0,
        "Inclination(deg)": 60.0,
        "Latitude(deg)": 4.22961954341396,
        "Longitude(deg)": -62.872990958459084,
        "Mean Anomaly(deg)": 4.960849163694646,
        "RAAN(deg)": 34.996639606882056,
        "Satellite Name": "Test1 154",
        "Satellite Number": 154,
        "Semi-Major Axis(m)": 6980739.136638005,
        "Time(s)": 80
    },
    {
        "Altitude(m)": 604464.0934794354,
        "Argument of Periapsis(deg)": 0.0009377051321966765,
        "Eccentricity": 0.0,
        "Inclination(deg)": 60.0,
        "Latitude(deg)": 4.769539551274324,
        "Longitude(deg)": -62.60292383147855,
        "Mean Anomaly(deg)": 5.580955309156474,
        "RAAN(deg)": 34.996219557742315,
        "Satellite Name": "Test1 154",
        "Satellite Number": 154,
        "Semi-Major Axis(m)": 6980739.136638005,
        "Time(s)": 90
    },
    {
        "Altitude(m)": 604424.1863534411,
        "Argument of Periapsis(deg)": 0.0010418945913296407,
        "Eccentricity": 0.0,
        "Inclination(deg)": 60.0,
        "Latitude(deg)": 5.309318487821303,
        "Longitude(deg)": -62.33236507324425,
        "Mean Anomaly(deg)": 6.2010614546183085,
        "RAAN(deg)": 34.99579950860257,
        "Satellite Name": "Test1 154",
        "Satellite Number": 154,
        "Semi-Major Axis(m)": 6980739.136638005,
        "Time(s)": 100
    },
    {
        "Altitude(m)": 604387.5097675995,
        "Argument of Periapsis(deg)": 0.0011460840504626045,
        "Eccentricity": 0.0,
        "Inclination(deg)": 60.0,
        "Latitude(deg)": 5.8489388147001975,
        "Longitude(deg)": -62.061258876974215,
        "Mean Anomaly(deg)": 6.821167600080136,
        "RAAN(deg)": 34.99537945946283,
        "Satellite Name": "Test1 154",
        "Satellite Number": 154,
        "Semi-Major Axis(m)": 6980739.136638005,
        "Time(s)": 110
    },
    {
        "Altitude(m)": 604354.056411252,
        "Argument of Periapsis(deg)": 0.0012502735095955685,
        "Eccentricity": 0.0,
        "Inclination(deg)": 60.0,
        "Latitude(deg)": 6.388382890933716,
        "Longitude(deg)": -61.789549111388915,
        "Mean Anomaly(deg)": 7.441273745541963,
        "RAAN(deg)": 34.99495941032309,
        "Satellite Name": "Test1 154",
        "Satellite Number": 154,
        "Semi-Major Axis(m)": 6980739.136638005,
        "Time(s)": 120
    },
    {
        "Altitude(m)": 604323.8174748608,
        "Argument of Periapsis(deg)": 0.0013544629687285324,
        "Eccentricity": 0.0,
        "Inclination(deg)": 60.0,
        "Latitude(deg)": 6.927632962310753,
        "Longitude(deg)": -61.517178782879085,
        "Mean Anomaly(deg)": 8.06137989100379,
        "RAAN(deg)": 34.99453936118335,
        "Satellite Name": "Test1 154",
        "Satellite Number": 154,
        "Semi-Major Axis(m)": 6980739.136638005,
        "Time(s)": 130
    },
    {
        "Altitude(m)": 604296.7826571572,
        "Argument of Periapsis(deg)": 0.0014586524278614966,
        "Eccentricity": 0.0,
        "Inclination(deg)": 60.0,
        "Latitude(deg)": 7.466671150623442,
        "Longitude(deg)": -61.244091010224594,
        "Mean Anomaly(deg)": 8.681486036465625,
        "RAAN(deg)": 34.99411931204361,
        "Satellite Name": "Test1 154",
        "Satellite Number": 154,
        "Semi-Major Axis(m)": 6980739.136638005,
        "Time(s)": 140
    },
    {
        "Altitude(m)": 604272.9401730435,
        "Argument of Periapsis(deg)": 0.0015628418869944607,
        "Eccentricity": 0.0,
        "Inclination(deg)": 60.0,
        "Latitude(deg)": 8.00547944273972,
        "Longitude(deg)": -60.970228486089354,
        "Mean Anomaly(deg)": 9.301592181927452,
        "RAAN(deg)": 34.99369926290385,
        "Satellite Name": "Test1 154",
        "Satellite Number": 154,
        "Semi-Major Axis(m)": 6980739.136638005,
        "Time(s)": 150
    },
    {
        "Altitude(m)": 604252.2767621973,
        "Argument of Periapsis(deg)": 0.0016670313461274247,
        "Eccentricity": 0.0,
        "Inclination(deg)": 60.0,
        "Latitude(deg)": 8.544039679495661,
        "Longitude(deg)": -60.69553293813536,
        "Mean Anomaly(deg)": 9.92169832738928,
        "RAAN(deg)": 34.99327921376411,
        "Satellite Name": "Test1 154",
        "Satellite Number": 154,
        "Semi-Major Axis(m)": 6980739.136638005,
        "Time(s)": 160
    },
    {
        "Altitude(m)": 604234.7776984266,
        "Argument of Periapsis(deg)": 0.0017712208052603888,
        "Eccentricity": 0.0,
        "Inclination(deg)": 60.0,
        "Latitude(deg)": 9.08233354439094,
        "Longitude(deg)": -60.41994610259991,
        "Mean Anomaly(deg)": 10.541804472851114,
        "RAAN(deg)": 34.99285916462437,
        "Satellite Name": "Test1 154",
        "Satellite Number": 154,
        "Semi-Major Axis(m)": 6980739.136638005,
        "Time(s)": 170
    },
    {
        "Altitude(m)": 604220.4267997249,
        "Argument of Periapsis(deg)": 0.001875410264393353,
        "Eccentricity": 0.0,
        "Inclination(deg)": 60.0,
        "Latitude(deg)": 9.620342552074252,
        "Longitude(deg)": -60.14340918455965,
        "Mean Anomaly(deg)": 11.161910618312941,
        "RAAN(deg)": 34.99243911548463,
        "Satellite Name": "Test1 154",
        "Satellite Number": 154,
        "Semi-Major Axis(m)": 6980739.136638005,
        "Time(s)": 180
    },
    {
        "Altitude(m)": 604209.2064390153,
        "Argument of Periapsis(deg)": 0.0019795997235263173,
        "Eccentricity": 0.0,
        "Inclination(deg)": 60.0,
        "Latitude(deg)": 10.158048036601755,
        "Longitude(deg)": -59.8658623177251,
        "Mean Anomaly(deg)": 11.782016763774768,
        "RAAN(deg)": 34.99201906634489,
        "Satellite Name": "Test1 154",
        "Satellite Number": 154,
        "Semi-Major Axis(m)": 6980739.136638005,
        "Time(s)": 190
    }
]